{
  "type": "FeatureCollection",
  "features": [
    {
      "type": "Feature",
      "properties": {
        "norad_id": 29975,
        "name": "FENGYUN 1C DEB",
        "group": "fengyun-1c-debris",
        "lat": -67.52370455761599,
        "lon": 65.0438508240961,
        "alt_km": 850.4596777380102,
        "timestamp": "2025-12-26T07:29:18.728521+00:00",
        "meta_object_name": "FENGYUN 1C DEB",
        "meta_object_id": "1999-025KZ",
        "meta_epoch": "2025-12-25T22:06:17.153568",
        "meta_mean_motion": 13.98029865,
        "meta_eccentricity": 0.01130514,
        "meta_inclination": 99.3375,
        "meta_ra_of_asc_node": 41.2131,
        "meta_arg_of_pericenter": 337.923,
        "meta_mean_anomaly": 146.8337,
        "meta_ephemeris_type": 0,
        "meta_classification_type": "U",
        "meta_norad_cat_id": 29975,
        "meta_element_set_no": 999,
        "meta_rev_at_epoch": 96621,
        "meta_bstar": 0.00021277319,
        "meta_mean_motion_dot": 2.72e-06,
        "meta_mean_motion_ddot": 0,
        "tle_line1": "1 29975U 99025KZ  25359.92103187  .00000272  00000+0  21277-3 0  9994",
        "tle_line2": "2 29975  99.3375  41.2131 0113051 337.9230 146.8337 13.98029865966217"
      },
      "geometry": {
        "type": "Point",
        "coordinates": [
          65.0438508240961,
          -67.52370455761599
        ]
      }
    },
    {
      "type": "Feature",
      "properties": {
        "norad_id": 29976,
        "name": "FENGYUN 1C DEB",
        "group": "fengyun-1c-debris",
        "lat": 69.13764692229502,
        "lon": -158.40704928796546,
        "alt_km": 898.5016421816072,
        "timestamp": "2025-12-26T07:29:18.728532+00:00",
        "meta_object_name": "FENGYUN 1C DEB",
        "meta_object_id": "1999-025LA",
        "meta_epoch": "2025-12-25T22:41:49.956576",
        "meta_mean_motion": 13.98128587,
        "meta_eccentricity": 0.02675989,
        "meta_inclination": 98.9201,
        "meta_ra_of_asc_node": 356.9,
        "meta_arg_of_pericenter": 202.9066,
        "meta_mean_anomaly": 226.3598,
        "meta_ephemeris_type": 0,
        "meta_classification_type": "U",
        "meta_norad_cat_id": 29976,
        "meta_element_set_no": 999,
        "meta_rev_at_epoch": 96521,
        "meta_bstar": 0.00043720845,
        "meta_mean_motion_dot": 8.01e-06,
        "meta_mean_motion_ddot": 0,
        "tle_line1": "1 29976U 99025LA  25359.94571709  .00000801  00000+0  43721-3 0  9992",
        "tle_line2": "2 29976  98.9201 356.9000 0267598 202.9066 226.3598 13.98128587965219"
      },
      "geometry": {
        "type": "Point",
        "coordinates": [
          -158.40704928796546,
          69.13764692229502
        ]
      }
    },
    {
      "type": "Feature",
      "properties": {
        "norad_id": 29977,
        "name": "FENGYUN 1C DEB",
        "group": "fengyun-1c-debris",
        "lat": 24.389704556169747,
        "lon": -142.48026884508627,
        "alt_km": 965.7191479400417,
        "timestamp": "2025-12-26T07:29:18.728543+00:00",
        "meta_object_name": "FENGYUN 1C DEB",
        "meta_object_id": "1999-025LB",
        "meta_epoch": "2025-12-15T02:05:24.079200",
        "meta_mean_motion": 14.0509794,
        "meta_eccentricity": 0.0128352,
        "meta_inclination": 98.3968,
        "meta_ra_of_asc_node": 210.9629,
        "meta_arg_of_pericenter": 250.2626,
        "meta_mean_anomaly": 265.3537,
        "meta_ephemeris_type": 0,
        "meta_classification_type": "U",
        "meta_norad_cat_id": 29977,
        "meta_element_set_no": 999,
        "meta_rev_at_epoch": 96393,
        "meta_bstar": 0.001211704,
        "meta_mean_motion_dot": 2.064e-05,
        "meta_mean_motion_ddot": 0,
        "tle_line1": "1 29977U 99025LB  25349.08708425  .00002064  00000+0  12117-2 0  9991",
        "tle_line2": "2 29977  98.3968 210.9629 0128352 250.2626 265.3537 14.05097940963932"
      },
      "geometry": {
        "type": "Point",
        "coordinates": [
          -142.48026884508627,
          24.389704556169747
        ]
      }
    },
    {
      "type": "Feature",
      "properties": {
        "norad_id": 29978,
        "name": "FENGYUN 1C DEB",
        "group": "fengyun-1c-debris",
        "lat": 19.253608546142097,
        "lon": 47.34110601446074,
        "alt_km": 852.6182422201937,
        "timestamp": "2025-12-26T07:29:18.728554+00:00",
        "meta_object_name": "FENGYUN 1C DEB",
        "meta_object_id": "1999-025LC",
        "meta_epoch": "2025-12-25T18:09:53.720064",
        "meta_mean_motion": 13.95912563,
        "meta_eccentricity": 0.00762916,
        "meta_inclination": 99.0597,
        "meta_ra_of_asc_node": 49.9899,
        "meta_arg_of_pericenter": 16.7934,
        "meta_mean_anomaly": 94.4846,
        "meta_ephemeris_type": 0,
        "meta_classification_type": "U",
        "meta_norad_cat_id": 29978,
        "meta_element_set_no": 999,
        "meta_rev_at_epoch": 96498,
        "meta_bstar": 0.00010023233,
        "meta_mean_motion_dot": 9.7e-07,
        "meta_mean_motion_ddot": 0,
        "tle_line1": "1 29978U 99025LC  25359.75687176  .00000097  00000+0  10023-3 0  9995",
        "tle_line2": "2 29978  99.0597  49.9899 0076291  16.7934  94.4846 13.95912563964984"
      },
      "geometry": {
        "type": "Point",
        "coordinates": [
          47.34110601446074,
          19.253608546142097
        ]
      }
    },
    {
      "type": "Feature",
      "properties": {
        "norad_id": 29979,
        "name": "FENGYUN 1C DEB",
        "group": "fengyun-1c-debris",
        "lat": 59.24236106737883,
        "lon": 8.594557634457146,
        "alt_km": 763.4612666623461,
        "timestamp": "2025-12-26T07:29:18.728564+00:00",
        "meta_object_name": "FENGYUN 1C DEB",
        "meta_object_id": "1999-025LD",
        "meta_epoch": "2025-12-25T23:07:12.538848",
        "meta_mean_motion": 14.25990029,
        "meta_eccentricity": 0.01080791,
        "meta_inclination": 98.3694,
        "meta_ra_of_asc_node": 22.5835,
        "meta_arg_of_pericenter": 124.3481,
        "meta_mean_anomaly": 308.1397,
        "meta_ephemeris_type": 0,
        "meta_classification_type": "U",
        "meta_norad_cat_id": 29979,
        "meta_element_set_no": 999,
        "meta_rev_at_epoch": 98262,
        "meta_bstar": 0.00037410379,
        "meta_mean_motion_dot": 9.09e-06,
        "meta_mean_motion_ddot": 0,
        "tle_line1": "1 29979U 99025LD  25359.96333957  .00000909  00000+0  37410-3 0  9995",
        "tle_line2": "2 29979  98.3694  22.5835 0108079 124.3481 308.1397 14.25990029982629"
      },
      "geometry": {
        "type": "Point",
        "coordinates": [
          8.594557634457146,
          59.24236106737883
        ]
      }
    },
    {
      "type": "Feature",
      "properties": {
        "norad_id": 29980,
        "name": "FENGYUN 1C DEB",
        "group": "fengyun-1c-debris",
        "lat": 67.44020660485381,
        "lon": 9.961395335540454,
        "alt_km": 873.876127468855,
        "timestamp": "2025-12-26T07:29:18.728574+00:00",
        "meta_object_name": "FENGYUN 1C DEB",
        "meta_object_id": "1999-025LE",
        "meta_epoch": "2025-12-25T23:02:20.215680",
        "meta_mean_motion": 14.06324073,
        "meta_eccentricity": 0.00872467,
        "meta_inclination": 98.552,
        "meta_ra_of_asc_node": 168.393,
        "meta_arg_of_pericenter": 210.1199,
        "meta_mean_anomaly": 280.3528,
        "meta_ephemeris_type": 0,
        "meta_classification_type": "U",
        "meta_norad_cat_id": 29980,
        "meta_element_set_no": 999,
        "meta_rev_at_epoch": 97178,
        "meta_bstar": 7.052762e-05,
        "meta_mean_motion_dot": 7.9e-07,
        "meta_mean_motion_ddot": 0,
        "tle_line1": "1 29980U 99025LE  25359.95995620  .00000079  00000+0  70528-4 0  9993",
        "tle_line2": "2 29980  98.5520 168.3930 0087246 210.1199 280.3528 14.06324073971789"
      },
      "geometry": {
        "type": "Point",
        "coordinates": [
          9.961395335540454,
          67.44020660485381
        ]
      }
    },
    {
      "type": "Feature",
      "properties": {
        "norad_id": 29982,
        "name": "FENGYUN 1C DEB",
        "group": "fengyun-1c-debris",
        "lat": -54.51353032739064,
        "lon": -9.872765774003634,
        "alt_km": 593.5411328206501,
        "timestamp": "2025-12-26T07:29:18.728585+00:00",
        "meta_object_name": "FENGYUN 1C DEB",
        "meta_object_id": "1999-025LG",
        "meta_epoch": "2025-12-25T22:58:06.205728",
        "meta_mean_motion": 14.66975184,
        "meta_eccentricity": 0.01216782,
        "meta_inclination": 99.4019,
        "meta_ra_of_asc_node": 183.1595,
        "meta_arg_of_pericenter": 247.8821,
        "meta_mean_anomaly": 274.1905,
        "meta_ephemeris_type": 0,
        "meta_classification_type": "U",
        "meta_norad_cat_id": 29982,
        "meta_element_set_no": 999,
        "meta_rev_at_epoch": 477,
        "meta_bstar": 0.00050326263,
        "meta_mean_motion_dot": 3.078e-05,
        "meta_mean_motion_ddot": 0,
        "tle_line1": "1 29982U 99025LG  25359.95701627  .00003078  00000+0  50326-3 0  9992",
        "tle_line2": "2 29982  99.4019 183.1595 0121678 247.8821 274.1905 14.66975184  4770"
      },
      "geometry": {
        "type": "Point",
        "coordinates": [
          -9.872765774003634,
          -54.51353032739064
        ]
      }
    }
  ]
}